{
  "type": "FeatureCollection",
  "features": [
    {
      "type": "Feature",
      "properties": {
        "norad_id": 33886,
        "name": "IRIDIUM 33 DEB",
        "group": "iridium-33-debris",
        "lat": 53.45577513081129,
        "lon": -113.39015806450783,
        "alt_km": 774.471052256552,
        "timestamp": "2025-12-02T13:52:17.645951+00:00",
        "meta_object_name": "IRIDIUM 33 DEB",
        "meta_object_id": "1997-051BF",
        "meta_epoch": "2025-12-02T06:50:38.057280",
        "meta_mean_motion": 14.3603078,
        "meta_eccentricity": 0.00120451,
        "meta_inclination": 86.3832,
        "meta_ra_of_asc_node": 71.6286,
        "meta_arg_of_pericenter": 281.7629,
        "meta_mean_anomaly": 131.7878,
        "meta_ephemeris_type": 0,
        "meta_classification_type": "U",
        "meta_norad_cat_id": 33886,
        "meta_element_set_no": 999,
        "meta_rev_at_epoch": 87902,
        "meta_bstar": 0.00028794567,
        "meta_mean_motion_dot": 8.57e-06,
        "meta_mean_motion_ddot": 0,
        "tle_line1": "1 33886U 97051BF  25336.28516270  .00000857  00000+0  28795-3 0  9993",
        "tle_line2": "2 33886  86.3832  71.6286 0012045 281.7629 131.7878 14.36030780879020"
      },
      "geometry": {
        "type": "Point",
        "coordinates": [
          -113.39015806450783,
          53.45577513081129
        ]
      }
    },
    {
      "type": "Feature",
      "properties": {
        "norad_id": 33887,
        "name": "IRIDIUM 33 DEB",
        "group": "iridium-33-debris",
        "lat": 19.700614083227723,
        "lon": 9.096966574032479,
        "alt_km": 768.6034055124082,
        "timestamp": "2025-12-02T13:52:17.645962+00:00",
        "meta_object_name": "IRIDIUM 33 DEB",
        "meta_object_id": "1997-051BG",
        "meta_epoch": "2025-12-02T02:12:48.398112",
        "meta_mean_motion": 14.37205512,
        "meta_eccentricity": 0.00040393,
        "meta_inclination": 86.3053,
        "meta_ra_of_asc_node": 7.9804,
        "meta_arg_of_pericenter": 277.872,
        "meta_mean_anomaly": 110.2578,
        "meta_ephemeris_type": 0,
        "meta_classification_type": "U",
        "meta_norad_cat_id": 33887,
        "meta_element_set_no": 999,
        "meta_rev_at_epoch": 88012,
        "meta_bstar": 0.00017226113,
        "meta_mean_motion_dot": 5.32e-06,
        "meta_mean_motion_ddot": 0,
        "tle_line1": "1 33887U 97051BG  25336.09222683  .00000532  00000+0  17226-3 0  9992",
        "tle_line2": "2 33887  86.3053   7.9804 0004039 277.8720 110.2578 14.37205512880126"
      },
      "geometry": {
        "type": "Point",
        "coordinates": [
          9.096966574032479,
          19.700614083227723
        ]
      }
    },
    {
      "type": "Feature",
      "properties": {
        "norad_id": 33953,
        "name": "IRIDIUM 33 DEB",
        "group": "iridium-33-debris",
        "lat": -62.967831670098036,
        "lon": 51.07215708409951,
        "alt_km": 728.6417627105784,
        "timestamp": "2025-12-02T13:52:17.645972+00:00",
        "meta_object_name": "IRIDIUM 33 DEB",
        "meta_object_id": "1997-051BN",
        "meta_epoch": "2025-12-02T06:09:33.536160",
        "meta_mean_motion": 14.55143385,
        "meta_eccentricity": 0.00183972,
        "meta_inclination": 86.3854,
        "meta_ra_of_asc_node": 58.3281,
        "meta_arg_of_pericenter": 134.9087,
        "meta_mean_anomaly": 279.6133,
        "meta_ephemeris_type": 0,
        "meta_classification_type": "U",
        "meta_norad_cat_id": 33953,
        "meta_element_set_no": 999,
        "meta_rev_at_epoch": 88151,
        "meta_bstar": 0.0016111372,
        "meta_mean_motion_dot": 6.995e-05,
        "meta_mean_motion_ddot": 0,
        "tle_line1": "1 33953U 97051BN  25336.25663815  .00006995  00000+0  16111-2 0  9990",
        "tle_line2": "2 33953  86.3854  58.3281 0018397 134.9087 279.6133 14.55143385881519"
      },
      "geometry": {
        "type": "Point",
        "coordinates": [
          51.07215708409951,
          -62.967831670098036
        ]
      }
    },
    {
      "type": "Feature",
      "properties": {
        "norad_id": 33960,
        "name": "IRIDIUM 33 DEB",
        "group": "iridium-33-debris",
        "lat": 76.88486297857203,
        "lon": 97.96389828473684,
        "alt_km": 604.3220695796108,
        "timestamp": "2025-12-02T13:52:17.645983+00:00",
        "meta_object_name": "IRIDIUM 33 DEB",
        "meta_object_id": "1997-051BV",
        "meta_epoch": "2025-12-01T21:29:55.792896",
        "meta_mean_motion": 14.84270371,
        "meta_eccentricity": 0.00069174,
        "meta_inclination": 86.2527,
        "meta_ra_of_asc_node": 294.6233,
        "meta_arg_of_pericenter": 77.1368,
        "meta_mean_anomaly": 342.5021,
        "meta_ephemeris_type": 0,
        "meta_classification_type": "U",
        "meta_norad_cat_id": 33960,
        "meta_element_set_no": 999,
        "meta_rev_at_epoch": 88706,
        "meta_bstar": 0.0035105503,
        "meta_mean_motion_dot": 0.00029537,
        "meta_mean_motion_ddot": 0,
        "tle_line1": "1 33960U 97051BV  25335.89578464  .00029537  00000+0  35106-2 0  9994",
        "tle_line2": "2 33960  86.2527 294.6233 0006917  77.1368 342.5021 14.84270371887060"
      },
      "geometry": {
        "type": "Point",
        "coordinates": [
          97.96389828473684,
          76.88486297857203
        ]
      }
    },
    {
      "type": "Feature",
      "properties": {
        "norad_id": 33966,
        "name": "IRIDIUM 33 DEB",
        "group": "iridium-33-debris",
        "lat": -86.36384002395589,
        "lon": -32.59028430931666,
        "alt_km": 731.5094823005247,
        "timestamp": "2025-12-02T13:52:17.645994+00:00",
        "meta_object_name": "IRIDIUM 33 DEB",
        "meta_object_id": "1997-051CB",
        "meta_epoch": "2025-12-02T06:16:20.926848",
        "meta_mean_motion": 14.49520493,
        "meta_eccentricity": 0.00062836,
        "meta_inclination": 86.3934,
        "meta_ra_of_asc_node": 50.5231,
        "meta_arg_of_pericenter": 226.5231,
        "meta_mean_anomaly": 192.6741,
        "meta_ephemeris_type": 0,
        "meta_classification_type": "U",
        "meta_norad_cat_id": 33966,
        "meta_element_set_no": 999,
        "meta_rev_at_epoch": 88290,
        "meta_bstar": 0.00078491727,
        "meta_mean_motion_dot": 3.028e-05,
        "meta_mean_motion_ddot": 0,
        "tle_line1": "1 33966U 97051CB  25336.26135332  .00003028  00000+0  78492-3 0  9998",
        "tle_line2": "2 33966  86.3934  50.5231 0006283 226.5231 192.6741 14.49520493882906"
      },
      "geometry": {
        "type": "Point",
        "coordinates": [
          -32.59028430931666,
          -86.36384002395589
        ]
      }
    },
    {
      "type": "Feature",
      "properties": {
        "norad_id": 34071,
        "name": "IRIDIUM 33 DEB",
        "group": "iridium-33-debris",
        "lat": -18.569926271981604,
        "lon": 21.015134166483392,
        "alt_km": 738.7658005447338,
        "timestamp": "2025-12-02T13:52:17.646005+00:00",
        "meta_object_name": "IRIDIUM 33 DEB",
        "meta_object_id": "1997-051CE",
        "meta_epoch": "2025-12-02T04:00:56.713248",
        "meta_mean_motion": 14.49386618,
        "meta_eccentricity": 0.00094093,
        "meta_inclination": 86.3469,
        "meta_ra_of_asc_node": 22.4233,
        "meta_arg_of_pericenter": 136.3059,
        "meta_mean_anomaly": 223.8891,
        "meta_ephemeris_type": 0,
        "meta_classification_type": "U",
        "meta_norad_cat_id": 34071,
        "meta_element_set_no": 999,
        "meta_rev_at_epoch": 88181,
        "meta_bstar": 0.00071636991,
        "meta_mean_motion_dot": 2.758e-05,
        "meta_mean_motion_ddot": 0,
        "tle_line1": "1 34071U 97051CE  25336.16732307  .00002758  00000+0  71637-3 0  9993",
        "tle_line2": "2 34071  86.3469  22.4233 0009409 136.3059 223.8891 14.49386618881817"
      },
      "geometry": {
        "type": "Point",
        "coordinates": [
          21.015134166483392,
          -18.569926271981604
        ]
      }
    },
    {
      "type": "Feature",
      "properties": {
        "norad_id": 34077,
        "name": "IRIDIUM 33 DEB",
        "group": "iridium-33-debris",
        "lat": -14.50682345158327,
        "lon": 55.045366333527994,
        "alt_km": 682.676350985601,
        "timestamp": "2025-12-02T13:52:17.646015+00:00",
        "meta_object_name": "IRIDIUM 33 DEB",
        "meta_object_id": "1997-051CL",
        "meta_epoch": "2025-12-02T05:59:03.401952",
        "meta_mean_motion": 14.64548903,
        "meta_eccentricity": 0.00110206,
        "meta_inclination": 86.3871,
        "meta_ra_of_asc_node": 56.1267,
        "meta_arg_of_pericenter": 72.3746,
        "meta_mean_anomaly": 341.7588,
        "meta_ephemeris_type": 0,
        "meta_classification_type": "U",
        "meta_norad_cat_id": 34077,
        "meta_element_set_no": 999,
        "meta_rev_at_epoch": 88179,
        "meta_bstar": 0.0020601929,
        "meta_mean_motion_dot": 0.00010964,
        "meta_mean_motion_ddot": 0,
        "tle_line1": "1 34077U 97051CL  25336.24934493  .00010964  00000+0  20602-2 0  9991",
        "tle_line2": "2 34077  86.3871  56.1267 0011020  72.3746 341.7588 14.64548903881799"
      },
      "geometry": {
        "type": "Point",
        "coordinates": [
          55.045366333527994,
          -14.50682345158327
        ]
      }
    }
  ]
}